KUIPER-00178            
1 67767U 26030D   26055.94210336  .00017853  00000+0  52899-3 0  9999
2 67767  51.8844 280.6302 0005562  13.2651 346.8480 15.34912613  3137
KUIPER-00180            
1 67768U 26030E   26055.89232698  .00028197  00000+0  88842-3 0  9999
2 67768  51.8828 281.0382 0014635  32.7822 327.4067 15.32589996  3127
KUIPER-00197            
1 67769U 26030F   26055.93510798  .00017740  00000+0  51170-3 0  9991
2 67769  51.8841 280.5847 0001407  72.3505 287.7635 15.35773484  3134
KUIPER-00198            
1 67770U 26030G   26055.93801139  .00025670  00000+0  74287-3 0  9990
2 67770  51.8821 280.6024 0002670  24.2283 335.8828 15.35429942  3130
KUIPER-00199            
1 67771U 26030H   26055.88557702  .00024798  00000+0  75478-3 0  9992
2 67771  51.8821 280.9944 0010024  23.9844 336.1606 15.33816064  3126
KUIPER-00200            
1 67772U 26030J   26055.93029147  .00018562  00000+0  52438-3 0  9999
2 67772  51.8816 280.5522 0002188 163.0893 197.0166 15.36392924  3134
KUIPER-00203            
1 67773U 26030K   26055.88780785  .00024931  00000+0  76495-3 0  9992
2 67773  51.8815 281.0070 0012335  25.2205 334.9380 15.33533874  3126
KUIPER-00205            
1 67774U 26030L   26055.93575750  .00018098  00000+0  52211-3 0  9990
2 67774  51.8819 280.5865 0001875 355.1189   4.9778 15.35753173  3134
KUIPER-00208            
1 67775U 26030M   26055.89181401  .00011431  00000+0  36544-3 0  9997
2 67775  51.8849 281.0416 0014692  24.2962 335.8712 15.32813722  3127
KUIPER-00209            
1 67776U 26030N   26055.95630374  .00008943  00000+0  29149-3 0  9990
2 67776  51.8847 280.7222 0012456  23.4165 336.7385 15.32512224  3139
KUIPER-00213            
1 67777U 26030P   26055.76064327 -.00001066  00000+0 -21403-4 0  9996
2 67777  51.8818 281.6554 0014295  26.5814 333.5901 15.32624052  3103
KUIPER-00214            
1 67778U 26030Q   26055.93166726  .00017720  00000+0  50463-3 0  9991
2 67778  51.8849 280.5633 0001706 153.6250 206.4824 15.36176385  3133
