CCSDS_OMM_VERS = 2.0
CREATION_DATE  = 
ORIGINATOR     = 

OBJECT_NAME    = KUIPER-00178
OBJECT_ID      = 2026-030D
CENTER_NAME    = EARTH
REF_FRAME      = TEME
TIME_SYSTEM    = UTC
MEAN_ELEMENT_THEORY = SGP/SGP4

EPOCH          = 2026-02-24T22:36:37.730304
MEAN_MOTION    = 15.34912613
ECCENTRICITY   = .00055623
INCLINATION    = 51.8844
RA_OF_ASC_NODE = 280.6302
ARG_OF_PERICENTER = 13.2651
MEAN_ANOMALY   = 346.8480

EPHEMERIS_TYPE = 0
CLASSIFICATION_TYPE = U
NORAD_CAT_ID   = 67767
ELEMENT_SET_NO = 999
REV_AT_EPOCH   = 313
BSTAR          = .52899323E-3
MEAN_MOTION_DOT = .17853E-3
MEAN_MOTION_DDOT = 0

CCSDS_OMM_VERS = 2.0
CREATION_DATE  = 
ORIGINATOR     = 

OBJECT_NAME    = KUIPER-00180
OBJECT_ID      = 2026-030E
CENTER_NAME    = EARTH
REF_FRAME      = TEME
TIME_SYSTEM    = UTC
MEAN_ELEMENT_THEORY = SGP/SGP4

EPOCH          = 2026-02-24T21:24:57.051072
MEAN_MOTION    = 15.32589996
ECCENTRICITY   = .0014635
INCLINATION    = 51.8828
RA_OF_ASC_NODE = 281.0382
ARG_OF_PERICENTER = 32.7822
MEAN_ANOMALY   = 327.4067

EPHEMERIS_TYPE = 0
CLASSIFICATION_TYPE = U
NORAD_CAT_ID   = 67768
ELEMENT_SET_NO = 999
REV_AT_EPOCH   = 312
BSTAR          = .88842146E-3
MEAN_MOTION_DOT = .28197E-3
MEAN_MOTION_DDOT = 0

CCSDS_OMM_VERS = 2.0
CREATION_DATE  = 
ORIGINATOR     = 

OBJECT_NAME    = KUIPER-00197
OBJECT_ID      = 2026-030F
CENTER_NAME    = EARTH
REF_FRAME      = TEME
TIME_SYSTEM    = UTC
MEAN_ELEMENT_THEORY = SGP/SGP4

EPOCH          = 2026-02-24T22:26:33.329472
MEAN_MOTION    = 15.35773484
ECCENTRICITY   = .00014077
INCLINATION    = 51.8841
RA_OF_ASC_NODE = 280.5847
ARG_OF_PERICENTER = 72.3505
MEAN_ANOMALY   = 287.7635

EPHEMERIS_TYPE = 0
CLASSIFICATION_TYPE = U
NORAD_CAT_ID   = 67769
ELEMENT_SET_NO = 999
REV_AT_EPOCH   = 313
BSTAR          = .51170076E-3
MEAN_MOTION_DOT = .1774E-3
MEAN_MOTION_DDOT = 0

CCSDS_OMM_VERS = 2.0
CREATION_DATE  = 
ORIGINATOR     = 

OBJECT_NAME    = KUIPER-00198
OBJECT_ID      = 2026-030G
CENTER_NAME    = EARTH
REF_FRAME      = TEME
TIME_SYSTEM    = UTC
MEAN_ELEMENT_THEORY = SGP/SGP4

EPOCH          = 2026-02-24T22:30:44.184096
MEAN_MOTION    = 15.35429942
ECCENTRICITY   = .00026709
INCLINATION    = 51.8821
RA_OF_ASC_NODE = 280.6024
ARG_OF_PERICENTER = 24.2283
MEAN_ANOMALY   = 335.8828

EPHEMERIS_TYPE = 0
CLASSIFICATION_TYPE = U
NORAD_CAT_ID   = 67770
ELEMENT_SET_NO = 999
REV_AT_EPOCH   = 313
BSTAR          = .7428721E-3
MEAN_MOTION_DOT = .2567E-3
MEAN_MOTION_DDOT = 0

CCSDS_OMM_VERS = 2.0
CREATION_DATE  = 
ORIGINATOR     = 

OBJECT_NAME    = KUIPER-00199
OBJECT_ID      = 2026-030H
CENTER_NAME    = EARTH
REF_FRAME      = TEME
TIME_SYSTEM    = UTC
MEAN_ELEMENT_THEORY = SGP/SGP4

EPOCH          = 2026-02-24T21:15:13.854528
MEAN_MOTION    = 15.33816064
ECCENTRICITY   = .0010024
INCLINATION    = 51.8821
RA_OF_ASC_NODE = 280.9944
ARG_OF_PERICENTER = 23.9844
MEAN_ANOMALY   = 336.1606

EPHEMERIS_TYPE = 0
CLASSIFICATION_TYPE = U
NORAD_CAT_ID   = 67771
ELEMENT_SET_NO = 999
REV_AT_EPOCH   = 312
BSTAR          = .75478449E-3
MEAN_MOTION_DOT = .24798E-3
MEAN_MOTION_DDOT = 0

CCSDS_OMM_VERS = 2.0
CREATION_DATE  = 
ORIGINATOR     = 

OBJECT_NAME    = KUIPER-00200
OBJECT_ID      = 2026-030J
CENTER_NAME    = EARTH
REF_FRAME      = TEME
TIME_SYSTEM    = UTC
MEAN_ELEMENT_THEORY = SGP/SGP4

EPOCH          = 2026-02-24T22:19:37.183008
MEAN_MOTION    = 15.36392924
ECCENTRICITY   = .00021889
INCLINATION    = 51.8816
RA_OF_ASC_NODE = 280.5522
ARG_OF_PERICENTER = 163.0893
MEAN_ANOMALY   = 197.0166

EPHEMERIS_TYPE = 0
CLASSIFICATION_TYPE = U
NORAD_CAT_ID   = 67772
ELEMENT_SET_NO = 999
REV_AT_EPOCH   = 313
BSTAR          = .52437984E-3
MEAN_MOTION_DOT = .18562E-3
MEAN_MOTION_DDOT = 0

CCSDS_OMM_VERS = 2.0
CREATION_DATE  = 
ORIGINATOR     = 

OBJECT_NAME    = KUIPER-00203
OBJECT_ID      = 2026-030K
CENTER_NAME    = EARTH
REF_FRAME      = TEME
TIME_SYSTEM    = UTC
MEAN_ELEMENT_THEORY = SGP/SGP4

EPOCH          = 2026-02-24T21:18:26.598240
MEAN_MOTION    = 15.33533874
ECCENTRICITY   = .00123352
INCLINATION    = 51.8815
RA_OF_ASC_NODE = 281.0070
ARG_OF_PERICENTER = 25.2205
MEAN_ANOMALY   = 334.9380

EPHEMERIS_TYPE = 0
CLASSIFICATION_TYPE = U
NORAD_CAT_ID   = 67773
ELEMENT_SET_NO = 999
REV_AT_EPOCH   = 312
BSTAR          = .76494894E-3
MEAN_MOTION_DOT = .24931E-3
MEAN_MOTION_DDOT = 0

CCSDS_OMM_VERS = 2.0
CREATION_DATE  = 
ORIGINATOR     = 

OBJECT_NAME    = KUIPER-00205
OBJECT_ID      = 2026-030L
CENTER_NAME    = EARTH
REF_FRAME      = TEME
TIME_SYSTEM    = UTC
MEAN_ELEMENT_THEORY = SGP/SGP4

EPOCH          = 2026-02-24T22:27:29.448000
MEAN_MOTION    = 15.35753173
ECCENTRICITY   = .00018754
INCLINATION    = 51.8819
RA_OF_ASC_NODE = 280.5865
ARG_OF_PERICENTER = 355.1189
MEAN_ANOMALY   = 4.9778

EPHEMERIS_TYPE = 0
CLASSIFICATION_TYPE = U
NORAD_CAT_ID   = 67774
ELEMENT_SET_NO = 999
REV_AT_EPOCH   = 313
BSTAR          = .52211429E-3
MEAN_MOTION_DOT = .18098E-3
MEAN_MOTION_DDOT = 0

CCSDS_OMM_VERS = 2.0
CREATION_DATE  = 
ORIGINATOR     = 

OBJECT_NAME    = KUIPER-00208
OBJECT_ID      = 2026-030M
CENTER_NAME    = EARTH
REF_FRAME      = TEME
TIME_SYSTEM    = UTC
MEAN_ELEMENT_THEORY = SGP/SGP4

EPOCH          = 2026-02-24T21:24:12.730464
MEAN_MOTION    = 15.32813722
ECCENTRICITY   = .00146922
INCLINATION    = 51.8849
RA_OF_ASC_NODE = 281.0416
ARG_OF_PERICENTER = 24.2962
MEAN_ANOMALY   = 335.8712

EPHEMERIS_TYPE = 0
CLASSIFICATION_TYPE = U
NORAD_CAT_ID   = 67775
ELEMENT_SET_NO = 999
REV_AT_EPOCH   = 312
BSTAR          = .36543615E-3
MEAN_MOTION_DOT = .11431E-3
MEAN_MOTION_DDOT = 0

CCSDS_OMM_VERS = 2.0
CREATION_DATE  = 
ORIGINATOR     = 

OBJECT_NAME    = KUIPER-00209
OBJECT_ID      = 2026-030N
CENTER_NAME    = EARTH
REF_FRAME      = TEME
TIME_SYSTEM    = UTC
MEAN_ELEMENT_THEORY = SGP/SGP4

EPOCH          = 2026-02-24T22:57:04.643136
MEAN_MOTION    = 15.32512224
ECCENTRICITY   = .00124568
INCLINATION    = 51.8847
RA_OF_ASC_NODE = 280.7222
ARG_OF_PERICENTER = 23.4165
MEAN_ANOMALY   = 336.7385

EPHEMERIS_TYPE = 0
CLASSIFICATION_TYPE = U
NORAD_CAT_ID   = 67776
ELEMENT_SET_NO = 999
REV_AT_EPOCH   = 313
BSTAR          = .29148813E-3
MEAN_MOTION_DOT = .8943E-4
MEAN_MOTION_DDOT = 0

CCSDS_OMM_VERS = 2.0
CREATION_DATE  = 
ORIGINATOR     = 

OBJECT_NAME    = KUIPER-00213
OBJECT_ID      = 2026-030P
CENTER_NAME    = EARTH
REF_FRAME      = TEME
TIME_SYSTEM    = UTC
MEAN_ELEMENT_THEORY = SGP/SGP4

EPOCH          = 2026-02-24T18:15:19.578528
MEAN_MOTION    = 15.32624052
ECCENTRICITY   = .00142957
INCLINATION    = 51.8818
RA_OF_ASC_NODE = 281.6554
ARG_OF_PERICENTER = 26.5814
MEAN_ANOMALY   = 333.5901

EPHEMERIS_TYPE = 0
CLASSIFICATION_TYPE = U
NORAD_CAT_ID   = 67777
ELEMENT_SET_NO = 999
REV_AT_EPOCH   = 310
BSTAR          = -.21403081E-4
MEAN_MOTION_DOT = -.1066E-4
MEAN_MOTION_DDOT = 0

CCSDS_OMM_VERS = 2.0
CREATION_DATE  = 
ORIGINATOR     = 

OBJECT_NAME    = KUIPER-00214
OBJECT_ID      = 2026-030Q
CENTER_NAME    = EARTH
REF_FRAME      = TEME
TIME_SYSTEM    = UTC
MEAN_ELEMENT_THEORY = SGP/SGP4

EPOCH          = 2026-02-24T22:21:36.051264
MEAN_MOTION    = 15.36176385
ECCENTRICITY   = .00017067
INCLINATION    = 51.8849
RA_OF_ASC_NODE = 280.5633
ARG_OF_PERICENTER = 153.6250
MEAN_ANOMALY   = 206.4824

EPHEMERIS_TYPE = 0
CLASSIFICATION_TYPE = U
NORAD_CAT_ID   = 67778
ELEMENT_SET_NO = 999
REV_AT_EPOCH   = 313
BSTAR          = .50462866E-3
MEAN_MOTION_DOT = .1772E-3
MEAN_MOTION_DDOT = 0

